COSMOS 2576             
1 59773U 24092A   26068.82603826  .00015211  00000+0  56283-3 0  9991
2 59773  97.4253 186.0053 0005946 159.7731 200.3745 15.27760963101271
STARLINK-33771          
1 63659U 25083AB  26068.20071148  .00040098  00000+0  14577-2 0  9998
2 63659  43.0146  11.3577 0004623 238.7453 121.2946 15.27597149 49985
